QIANFAN-73              
1 63159U 25046A   25274.54033727  .00000202  00000+0  29512-3 0  9997
2 63159  88.9818 327.4914 0013711 340.2126  19.8492 13.50978062 37665
QIANFAN-75              
1 63161U 25046C   25274.51151949  .00000250  00000+0  36831-3 0  9999
2 63161  88.9820 327.6152 0014874 343.0384  17.0268 13.50975307 37597
QIANFAN-76              
1 63162U 25046D   25274.50741083  .00000157  00000+0  22456-3 0  9997
2 63162  88.9820 327.5966 0012480 345.0204  15.0576 13.50974840 37607
QIANFAN-77              
1 63163U 25046E   25274.51014351  .00000618  00000+0  44097-3 0  9997
2 63163  88.9815 326.1966 0012668 311.2049  48.8034 13.96059007 38374
QIANFAN-78              
1 63164U 25046F   25270.17873922  .00000155  00000+0  22125-3 0  9997
2 63164  88.9825 327.9067 0014334 359.8558   0.2586 13.50978582 37092
QIANFAN-79              
1 63165U 25046G   25274.50318997  .00000225  00000+0  32993-3 0  9997
2 63165  88.9823 327.5665 0013546 345.0996  14.9754 13.50969919 37620
QIANFAN-80              
1 63166U 25046H   25274.51976951  .00000245  00000+0  36080-3 0  9992
2 63166  88.9819 327.2736 0012709 350.3408   9.7497 13.50970689 37788
